NARSSCUBE-2             
1 44415U 19022E   22286.31034735  .00015219  00000+0  42658-3 0  9993
2 44415  51.6390 266.3855 0011373 118.5411 241.6718 15.36736202178229
DUCHIFAT-3              
1 44854U 19089C   22286.88332547  .00008113  00000+0  61385-3 0  9990
2 44854  36.9660 117.8767 0006366  96.4548 263.6763 15.01912146155746
OPS-SAT                 
1 44878U 19092F   22286.48903339  .00014984  00000+0  65480-3 0  9992
2 44878  97.4801 109.5950 0010948 291.5696  68.4373 15.22141728156131
FLORIPASAT-1            
1 44885U 19093G   22286.93493596  .00004604  00000+0  56395-3 0  9993
2 44885  97.8904   6.0246 0014805 161.1781 198.9950 14.83581487152412
HUSKYSAT-1 (HO-107)     
1 45119U 19071J   22286.46379181  .00047889  00000+0  82480-3 0  9997
2 45119  51.6356 197.4106 0008111 226.3282 133.7036 15.50552967151636
BY70-2                  
1 45857U 20042B   22286.77420052  .00016371  00000+0  20963-2 0  9993
2 45857  97.9485   2.5509 0011442  94.8051 265.4438 14.81343820122969
SALSAT                  
1 46495U 20068K   22286.39789748  .00004821  00000+0  34292-3 0  9996
2 46495  97.7378 227.8160 0015116 234.6944 125.2869 15.05047391111925
NETSAT-4                
1 46504U 20068U   22286.35870554  .00007489  00000+0  54406-3 0  9991
2 46504  97.7279 226.0054 0009868 290.2303  69.7859 15.04117441111769
NETSAT-3                
1 46505U 20068V   22286.37761363  .00008334  00000+0  60569-3 0  9998
2 46505  97.7246 225.9238 0009573 296.9922  63.0316 15.04068358111777
NETSAT-1                
1 46506U 20068W   22286.59819093  .00006992  00000+0  51005-3 0  9990
2 46506  97.7270 226.0625 0008271 317.2471  42.8110 15.03998184111806
NETSAT-2                
1 46507U 20068X   22286.40948439  .00007146  00000+0  52127-3 0  9996
2 46507  97.7275 225.8665 0007909 328.1817  31.8903 15.03992652111728
BY70-3                  
1 46839U 20079N   22286.89069597  .00056364  00000+0  10796-2 0  9999
2 46839  97.1867 357.7556 0004452 248.7513 231.4647 15.47845338108524
UVSQ-SAT                
1 47438U 21006AB  22286.40752760  .00010304  00000+0  52271-3 0  9993
2 47438  97.4235 343.0073 0010598 219.0358 141.0112 15.17071493 95157
SOMP2B                  
1 47445U 21006AJ  22286.43369509  .00009974  00000+0  51218-3 0  9990
2 47445  97.4206 342.5934 0010179 223.6296 136.4134 15.16655553 95145
DIY-1 (ARDUIQUBE)       
1 47963U 21022AH  22286.23813977  .00034140  00000+0  16995-2 0  9999
2 47963  97.5179 186.4166 0018636  86.1171 274.2193 15.17359989 84781
